[{"OBJECT_NAME":"ONEWEB-0627","OBJECT_ID":"2023-004AE","EPOCH":"2026-03-09T21:20:44.660256","MEAN_MOTION":13.17650419,"ECCENTRICITY":0.00016573,"INCLINATION":87.9149,"RA_OF_ASC_NODE":25.5931,"ARG_OF_PERICENTER":63.7722,"MEAN_ANOMALY":296.358,"EPHEMERIS_TYPE":0,"CLASSIFICATION_TYPE":"U","NORAD_CAT_ID":55168,"ELEMENT_SET_NO":999,"REV_AT_EPOCH":15450,"BSTAR":-4.5827799e-5,"MEAN_MOTION_DOT":-5.0e-8,"MEAN_MOTION_DDOT":0},{"OBJECT_NAME":"SL-14 DEB","OBJECT_ID":"1991-056G","EPOCH":"2026-03-09T09:38:36.351168","MEAN_MOTION":13.22410673,"ECCENTRICITY":0.00312585,"INCLINATION":82.5698,"RA_OF_ASC_NODE":198.6039,"ARG_OF_PERICENTER":292.5098,"MEAN_ANOMALY":67.2719,"EPHEMERIS_TYPE":0,"CLASSIFICATION_TYPE":"U","NORAD_CAT_ID":45270,"ELEMENT_SET_NO":999,"REV_AT_EPOCH":29286,"BSTAR":0.0005568069,"MEAN_MOTION_DOT":2.45e-6,"MEAN_MOTION_DDOT":0}]
